STARLINK-36581          
1 67543U 26014M   26027.58337963 -.01193908  46963-3 -20188-2 0  9994
2 67543  97.2820 270.2214 0001179  77.4104 332.3977 16.02768010  2089
STARLINK-36565          
1 67544U 26014N   26027.58337963 -.01189129  46687-3 -19952-2 0  9995
2 67544  97.2815 270.2215 0001121  73.4804 337.8151 16.02899758  2083
STARLINK-36583          
1 67545U 26014P   26027.58337963 -.01188352  46705-3 -19780-2 0  9993
2 67545  97.2815 270.2222 0001095  75.3790 337.3980 16.03036288  2084
STARLINK-36580          
1 67546U 26014Q   26027.58337963 -.01177863  46036-3 -19411-2 0  9997
2 67546  97.2812 270.2232 0001152  75.0321 339.5437 16.03204021  2087
STARLINK-36584          
1 67547U 26014R   26027.58337963 -.01172728  45729-3 -19192-2 0  9997
2 67547  97.2812 270.2234 0001061  76.7824 339.1522 16.03322001  2085
STARLINK-36586          
1 67548U 26014S   26027.58337963 -.01170603  45667-3 -18965-2 0  9996
2 67548  97.2815 270.2244 0001158  71.2066 346.4938 16.03491835  2089
STARLINK-36564          
1 67549U 26014T   26027.58337963 -.01164230  45284-3 -18702-2 0  9990
2 67549  97.2817 270.2250 0001143  74.7340 344.5266 16.03635074  2028
STARLINK-36563          
1 67550U 26014U   26027.58337963 -.01163216  45289-3 -18525-2 0  9993
2 67550  97.2811 270.2254 0001174  76.7819 344.0214 16.03780393  2084
STARLINK-36566          
1 67551U 26014V   26027.58337963 -.01152033  44554-3 -18209-2 0  9992
2 67551  97.2809 270.2261 0001062  73.4366 348.7989 16.03906342  2081
STARLINK-36567          
1 67552U 26014W   26027.58337963 -.01150075  44484-3 -18034-2 0  9995
2 67552  97.2808 270.2268 0001171  90.6488 333.0254 16.04039466  2082
STARLINK-36569          
1 67553U 26014X   26027.58337963 -.01144768  44196-3 -17766-2 0  9999
2 67553  97.2808 270.2275 0001101  73.5728 351.8823 16.04212108  2087
STARLINK-36395          
1 67554U 26014Y   26027.58337963 -.01125314  43049-3 -16994-2 0  9994
2 67554  97.2808 270.2298 0001120  81.7638 348.5094 16.04664593  2087
