CCSDS_OMM_VERS = 2.0
CREATION_DATE  = 
ORIGINATOR     = 

OBJECT_NAME    = STARLINK-36581
OBJECT_ID      = 2026-014M
CENTER_NAME    = EARTH
REF_FRAME      = TEME
TIME_SYSTEM    = UTC
MEAN_ELEMENT_THEORY = SGP/SGP4

EPOCH          = 2026-01-27T14:00:04.000032
MEAN_MOTION    = 16.02768010
ECCENTRICITY   = .0001179
INCLINATION    = 97.2820
RA_OF_ASC_NODE = 270.2214
ARG_OF_PERICENTER = 77.4104
MEAN_ANOMALY   = 332.3977

EPHEMERIS_TYPE = 0
CLASSIFICATION_TYPE = U
NORAD_CAT_ID   = 67543
ELEMENT_SET_NO = 999
REV_AT_EPOCH   = 208
BSTAR          = -.20188E-2
MEAN_MOTION_DOT = -.1193908E-1
MEAN_MOTION_DDOT = .46963E-3

CCSDS_OMM_VERS = 2.0
CREATION_DATE  = 
ORIGINATOR     = 

OBJECT_NAME    = STARLINK-36565
OBJECT_ID      = 2026-014N
CENTER_NAME    = EARTH
REF_FRAME      = TEME
TIME_SYSTEM    = UTC
MEAN_ELEMENT_THEORY = SGP/SGP4

EPOCH          = 2026-01-27T14:00:04.000032
MEAN_MOTION    = 16.02899758
ECCENTRICITY   = .0001121
INCLINATION    = 97.2815
RA_OF_ASC_NODE = 270.2215
ARG_OF_PERICENTER = 73.4804
MEAN_ANOMALY   = 337.8151

EPHEMERIS_TYPE = 0
CLASSIFICATION_TYPE = U
NORAD_CAT_ID   = 67544
ELEMENT_SET_NO = 999
REV_AT_EPOCH   = 208
BSTAR          = -.19952E-2
MEAN_MOTION_DOT = -.1189129E-1
MEAN_MOTION_DDOT = .46687E-3

CCSDS_OMM_VERS = 2.0
CREATION_DATE  = 
ORIGINATOR     = 

OBJECT_NAME    = STARLINK-36583
OBJECT_ID      = 2026-014P
CENTER_NAME    = EARTH
REF_FRAME      = TEME
TIME_SYSTEM    = UTC
MEAN_ELEMENT_THEORY = SGP/SGP4

EPOCH          = 2026-01-27T14:00:04.000032
MEAN_MOTION    = 16.03036288
ECCENTRICITY   = .0001095
INCLINATION    = 97.2815
RA_OF_ASC_NODE = 270.2222
ARG_OF_PERICENTER = 75.3790
MEAN_ANOMALY   = 337.3980

EPHEMERIS_TYPE = 0
CLASSIFICATION_TYPE = U
NORAD_CAT_ID   = 67545
ELEMENT_SET_NO = 999
REV_AT_EPOCH   = 208
BSTAR          = -.1978E-2
MEAN_MOTION_DOT = -.1188352E-1
MEAN_MOTION_DDOT = .46705E-3

CCSDS_OMM_VERS = 2.0
CREATION_DATE  = 
ORIGINATOR     = 

OBJECT_NAME    = STARLINK-36580
OBJECT_ID      = 2026-014Q
CENTER_NAME    = EARTH
REF_FRAME      = TEME
TIME_SYSTEM    = UTC
MEAN_ELEMENT_THEORY = SGP/SGP4

EPOCH          = 2026-01-27T14:00:04.000032
MEAN_MOTION    = 16.03204021
ECCENTRICITY   = .0001152
INCLINATION    = 97.2812
RA_OF_ASC_NODE = 270.2232
ARG_OF_PERICENTER = 75.0321
MEAN_ANOMALY   = 339.5437

EPHEMERIS_TYPE = 0
CLASSIFICATION_TYPE = U
NORAD_CAT_ID   = 67546
ELEMENT_SET_NO = 999
REV_AT_EPOCH   = 208
BSTAR          = -.19411E-2
MEAN_MOTION_DOT = -.1177863E-1
MEAN_MOTION_DDOT = .46036E-3

CCSDS_OMM_VERS = 2.0
CREATION_DATE  = 
ORIGINATOR     = 

OBJECT_NAME    = STARLINK-36584
OBJECT_ID      = 2026-014R
CENTER_NAME    = EARTH
REF_FRAME      = TEME
TIME_SYSTEM    = UTC
MEAN_ELEMENT_THEORY = SGP/SGP4

EPOCH          = 2026-01-27T14:00:04.000032
MEAN_MOTION    = 16.03322001
ECCENTRICITY   = .0001061
INCLINATION    = 97.2812
RA_OF_ASC_NODE = 270.2234
ARG_OF_PERICENTER = 76.7824
MEAN_ANOMALY   = 339.1522

EPHEMERIS_TYPE = 0
CLASSIFICATION_TYPE = U
NORAD_CAT_ID   = 67547
ELEMENT_SET_NO = 999
REV_AT_EPOCH   = 208
BSTAR          = -.19192E-2
MEAN_MOTION_DOT = -.1172728E-1
MEAN_MOTION_DDOT = .45729E-3

CCSDS_OMM_VERS = 2.0
CREATION_DATE  = 
ORIGINATOR     = 

OBJECT_NAME    = STARLINK-36586
OBJECT_ID      = 2026-014S
CENTER_NAME    = EARTH
REF_FRAME      = TEME
TIME_SYSTEM    = UTC
MEAN_ELEMENT_THEORY = SGP/SGP4

EPOCH          = 2026-01-27T14:00:04.000032
MEAN_MOTION    = 16.03491835
ECCENTRICITY   = .0001158
INCLINATION    = 97.2815
RA_OF_ASC_NODE = 270.2244
ARG_OF_PERICENTER = 71.2066
MEAN_ANOMALY   = 346.4938

EPHEMERIS_TYPE = 0
CLASSIFICATION_TYPE = U
NORAD_CAT_ID   = 67548
ELEMENT_SET_NO = 999
REV_AT_EPOCH   = 208
BSTAR          = -.18965E-2
MEAN_MOTION_DOT = -.1170603E-1
MEAN_MOTION_DDOT = .45667E-3

CCSDS_OMM_VERS = 2.0
CREATION_DATE  = 
ORIGINATOR     = 

OBJECT_NAME    = STARLINK-36564
OBJECT_ID      = 2026-014T
CENTER_NAME    = EARTH
REF_FRAME      = TEME
TIME_SYSTEM    = UTC
MEAN_ELEMENT_THEORY = SGP/SGP4

EPOCH          = 2026-01-27T14:00:04.000032
MEAN_MOTION    = 16.03635074
ECCENTRICITY   = .0001143
INCLINATION    = 97.2817
RA_OF_ASC_NODE = 270.2250
ARG_OF_PERICENTER = 74.7340
MEAN_ANOMALY   = 344.5266

EPHEMERIS_TYPE = 0
CLASSIFICATION_TYPE = U
NORAD_CAT_ID   = 67549
ELEMENT_SET_NO = 999
REV_AT_EPOCH   = 202
BSTAR          = -.18702E-2
MEAN_MOTION_DOT = -.116423E-1
MEAN_MOTION_DDOT = .45284E-3

CCSDS_OMM_VERS = 2.0
CREATION_DATE  = 
ORIGINATOR     = 

OBJECT_NAME    = STARLINK-36563
OBJECT_ID      = 2026-014U
CENTER_NAME    = EARTH
REF_FRAME      = TEME
TIME_SYSTEM    = UTC
MEAN_ELEMENT_THEORY = SGP/SGP4

EPOCH          = 2026-01-27T14:00:04.000032
MEAN_MOTION    = 16.03780393
ECCENTRICITY   = .0001174
INCLINATION    = 97.2811
RA_OF_ASC_NODE = 270.2254
ARG_OF_PERICENTER = 76.7819
MEAN_ANOMALY   = 344.0214

EPHEMERIS_TYPE = 0
CLASSIFICATION_TYPE = U
NORAD_CAT_ID   = 67550
ELEMENT_SET_NO = 999
REV_AT_EPOCH   = 208
BSTAR          = -.18525E-2
MEAN_MOTION_DOT = -.1163216E-1
MEAN_MOTION_DDOT = .45289E-3

CCSDS_OMM_VERS = 2.0
CREATION_DATE  = 
ORIGINATOR     = 

OBJECT_NAME    = STARLINK-36566
OBJECT_ID      = 2026-014V
CENTER_NAME    = EARTH
REF_FRAME      = TEME
TIME_SYSTEM    = UTC
MEAN_ELEMENT_THEORY = SGP/SGP4

EPOCH          = 2026-01-27T14:00:04.000032
MEAN_MOTION    = 16.03906342
ECCENTRICITY   = .0001062
INCLINATION    = 97.2809
RA_OF_ASC_NODE = 270.2261
ARG_OF_PERICENTER = 73.4366
MEAN_ANOMALY   = 348.7989

EPHEMERIS_TYPE = 0
CLASSIFICATION_TYPE = U
NORAD_CAT_ID   = 67551
ELEMENT_SET_NO = 999
REV_AT_EPOCH   = 208
BSTAR          = -.18209E-2
MEAN_MOTION_DOT = -.1152033E-1
MEAN_MOTION_DDOT = .44554E-3

CCSDS_OMM_VERS = 2.0
CREATION_DATE  = 
ORIGINATOR     = 

OBJECT_NAME    = STARLINK-36567
OBJECT_ID      = 2026-014W
CENTER_NAME    = EARTH
REF_FRAME      = TEME
TIME_SYSTEM    = UTC
MEAN_ELEMENT_THEORY = SGP/SGP4

EPOCH          = 2026-01-27T14:00:04.000032
MEAN_MOTION    = 16.04039466
ECCENTRICITY   = .0001171
INCLINATION    = 97.2808
RA_OF_ASC_NODE = 270.2268
ARG_OF_PERICENTER = 90.6488
MEAN_ANOMALY   = 333.0254

EPHEMERIS_TYPE = 0
CLASSIFICATION_TYPE = U
NORAD_CAT_ID   = 67552
ELEMENT_SET_NO = 999
REV_AT_EPOCH   = 208
BSTAR          = -.18034E-2
MEAN_MOTION_DOT = -.1150075E-1
MEAN_MOTION_DDOT = .44484E-3

CCSDS_OMM_VERS = 2.0
CREATION_DATE  = 
ORIGINATOR     = 

OBJECT_NAME    = STARLINK-36569
OBJECT_ID      = 2026-014X
CENTER_NAME    = EARTH
REF_FRAME      = TEME
TIME_SYSTEM    = UTC
MEAN_ELEMENT_THEORY = SGP/SGP4

EPOCH          = 2026-01-27T14:00:04.000032
MEAN_MOTION    = 16.04212108
ECCENTRICITY   = .0001101
INCLINATION    = 97.2808
RA_OF_ASC_NODE = 270.2275
ARG_OF_PERICENTER = 73.5728
MEAN_ANOMALY   = 351.8823

EPHEMERIS_TYPE = 0
CLASSIFICATION_TYPE = U
NORAD_CAT_ID   = 67553
ELEMENT_SET_NO = 999
REV_AT_EPOCH   = 208
BSTAR          = -.17766E-2
MEAN_MOTION_DOT = -.1144768E-1
MEAN_MOTION_DDOT = .44196E-3

CCSDS_OMM_VERS = 2.0
CREATION_DATE  = 
ORIGINATOR     = 

OBJECT_NAME    = STARLINK-36395
OBJECT_ID      = 2026-014Y
CENTER_NAME    = EARTH
REF_FRAME      = TEME
TIME_SYSTEM    = UTC
MEAN_ELEMENT_THEORY = SGP/SGP4

EPOCH          = 2026-01-27T14:00:04.000032
MEAN_MOTION    = 16.04664593
ECCENTRICITY   = .000112
INCLINATION    = 97.2808
RA_OF_ASC_NODE = 270.2298
ARG_OF_PERICENTER = 81.7638
MEAN_ANOMALY   = 348.5094

EPHEMERIS_TYPE = 0
CLASSIFICATION_TYPE = U
NORAD_CAT_ID   = 67554
ELEMENT_SET_NO = 999
REV_AT_EPOCH   = 208
BSTAR          = -.16994E-2
MEAN_MOTION_DOT = -.1125314E-1
MEAN_MOTION_DDOT = .43049E-3

